CUTE-1 (CO-55)          
1 27844U 03031E   26187.56604814  .00000268  00000+0  13471-3 0  9994
2 27844  98.6738 195.8812 0010595 125.0004 235.2171 14.24347746194438
CUBESAT XI-IV (CO-57)   
1 27848U 03031J   26187.00197818  .00000261  00000+0  13358-3 0  9995
2 27848  98.6770 195.0217 0010158 143.6881 216.4988 14.23631104194051
CUBESAT XI-V            
1 28895U 05043F   26187.35932927  .00001568  00000+0  25384-3 0  9992
2 28895  98.3006 343.3861 0014897 141.1916 219.0363 14.72686551104576
CUTE-1.7+APD II (CO-65) 
1 32785U 08021C   26187.86961265  .00003564  00000+0  22553-3 0  9990
2 32785  97.8290 169.7007 0007594 333.7345  26.3497 15.09650542988165
CANX-2                  
1 32790U 08021H   26187.69347425  .00004043  00000+0  28340-3 0  9996
2 32790  97.8648 167.8522 0009682 347.1320  12.9657 15.05764839987744
SEEDS II (CO-66)        
1 32791U 08021J   26187.52081955  .00014454  00000+0  44924-3 0  9995
2 32791  97.7528 186.3507 0002070 176.8550 183.2705 15.33455492990255
SWISSCUBE               
1 35932U 09051B   26187.73580808  .00000901  00000+0  18748-3 0  9990
2 35932  98.4019  95.9636 0007377 142.1539 218.0181 14.62519591892016
BEESAT-1                
1 35933U 09051C   26187.68699793  .00000825  00000+0  17521-3 0  9992
2 35933  98.3946  95.5083 0005594 152.8546 207.2947 14.61752775892036
ITUPSAT1                
1 35935U 09051E   26187.69497892  .00000747  00000+0  16401-3 0  9990
2 35935  98.4028  94.6875 0007469 168.0612 192.0766 14.60470304891588
TISAT 1                 
1 36799U 10035E   26187.38438784  .00019611  00000+0  62689-3 0  9993
2 36799  98.0714 135.6467 0004016 127.7784 232.3820 15.32488033870646
AEROCUBE 4.5A           
1 38767U 12048K   26180.81601320  .02026816  74244-5  11805-2 0  9992
2 38767  64.6148 340.0554 0018867 267.4936  92.4076 16.17962819374686
STRAND-1                
1 39090U 13009E   26187.48041745  .00000297  00000+0  11401-3 0  9998
2 39090  98.3930   7.2406 0008903 165.5665 194.5778 14.37175317699833
BRITE-AUSTRIA           
1 39091U 13009F   26187.43200206  .00000186  00000+0  77696-4 0  9999
2 39091  98.4004   6.3921 0010220 175.9573 184.1698 14.36550054699815
NEE-01 PEGASO           
1 39151U 13018B   26187.62531110  .00003027  00000+0  29094-3 0  9993
2 39151  98.1252 332.4212 0013983  99.8579 260.4219 14.93764803713602
POPACS 2                
1 39269U 13055E   26185.82184007  .00027129 -75250-6  44971-3 0  9990
2 39269  80.9915 124.0034 0415832 137.1605 226.2823 14.91720341665849
POPACS 3                
1 39270U 13055F   26187.76875674  .00009415  00000+0  22270-3 0  9993
2 39270  80.9993 207.9500 0549838  10.3806 350.8201 14.56510062641403
ZACUBE-1 (TSHEPISOSAT)  
1 39417U 13066B   26187.87004257  .00002235  00000+0  17519-3 0  9994
2 39417  97.8025 150.3054 0043443 181.9155 178.1909 15.01302905683685
WNISAT-1                
1 39423U 13066H   26187.63215860  .00001280  00000+0  24013-3 0  9995
2 39423  97.7226 335.4105 0163281 170.1745 190.2715 14.58106164669566
TRITON-1                
1 39427U 13066M   26187.81187339  .00002195  00000+0  26603-3 0  9991
2 39427  97.8227  97.1709 0089899 169.3342 190.9806 14.81777239676995
GOMX-1                  
1 39430U 13066Q   26187.79627457  .00002589  00000+0  39160-3 0  9991
2 39430  97.6474  27.0210 0129051  15.1594 345.3423 14.69531142672794
CUBEBUG-2 (LO-74)       
1 39440U 13066AA  26187.42111588  .00003781  00000+0  35018-3 0  9998
2 39440  97.8914 136.4829 0056283 325.3135  34.4418 14.93929798679860
NEE-02 KRYSAOR          
1 39441U 13066AB  26187.25670692  .00002860  00000+0  31544-3 0  9993
2 39441  97.8890 126.3363 0066249   8.6556 351.5786 14.86713200679037
FUNCUBE-1 (AO-73)       
1 39444U 13066AE  26187.87556615  .00006051  00000+0  37306-3 0  9990
2 39444  97.8282 159.7358 0037536 134.9216 225.5068 15.09744377682630
UWE-3                   
1 39446U 13066AG  26187.86577681  .00002328  00000+0  20239-3 0  9997
2 39446  97.8701 144.0754 0047462 253.6272 105.9728 14.97165972680529
BRITE-CA1 (TORONTO)     
1 40020U 14033L   26187.60570065  .00001010  00000+0  15907-3 0  9996
2 40020  97.9763 316.1784 0077829 213.9093 145.7126 14.72710951645074
DUCHIFAT-1              
1 40021U 14033M   26187.69409459  .00117855  00000+0  10018-2 0  9996
2 40021  98.0433 249.6610 0001149 272.1887  87.9241 15.69242725658805
NANOSATC-BR1            
1 40024U 14033Q   26187.67244897  .00013914  00000+0  45085-3 0  9994
2 40024  98.0714 221.7949 0005298 117.4350 242.7429 15.32129719656962
QB50P1                  
1 40025U 14033R   26187.59057583  .00007136  00000+0  34846-3 0  9992
2 40025  98.0968 200.1005 0009731 150.6078 209.5704 15.18574752655972
QB50P2                  
1 40032U 14033Y   26187.71268522  .00005564  00000+0  29803-3 0  9991
2 40032  98.0762 185.8120 0009356 107.2465 252.9791 15.15431821655626
PERSEUS-M2              
1 40037U 14033AD  26187.86752356  .00001799  00000+0  16759-3 0  9997
2 40037  97.9967 138.8098 0010677 230.4482 129.5796 14.95569526653728
